COSMOS 2501 (702K)      
1 40315U 14075A   26116.68219734 -.00000006  00000+0  00000+0 0  9991
2 40315  63.6141 192.1544 0021866 210.0540 149.8715  2.13101290 88759
GPS BIIF-9  (PRN 26)    
1 40534U 15013A   26115.70924992 -.00000039  00000+0  00000+0 0  9994
2 40534  53.1744 206.3479 0108874  39.9788 320.8435  2.00554458 80775
GSAT0203 (GALILEO 7)    
1 40544U 15017A   26111.90090206 -.00000083  00000+0  00000+0 0  9998
2 40544  56.8042 343.1309 0002546 315.4442  44.5780  1.70475713 68240
GSAT0204 (GALILEO 8)    
1 40545U 15017B   26115.08949468 -.00000090  00000+0  00000+0 0  9993
2 40545  56.8095 343.0621 0001552 296.0698  63.9535  1.70475480 31343
BEIDOU-3S IGSO-1S (C31) 
1 40549U 15019A   26112.98991377 -.00000171  00000+0  00000+0 0  9991
2 40549  49.2998 296.1212 0037208 189.9963 176.4804  1.00261100 40525
GPS BIIF-10 (PRN 08)    
1 40730U 15033A   26115.37018511 -.00000039  00000+0  00000+0 0  9998
2 40730  54.0255 269.2625 0115006  29.8840 330.7367  2.00558940 78932
BEIDOU-3S M2S (C58)     
1 40748U 15037A   26116.23924189 -.00000055  00000+0  00000+0 0  9992
2 40748  54.9173 303.8339 0007401 271.2461  88.6693  1.86231742 73158
BEIDOU-3S M1S (C57)     
1 40749U 15037B   26115.37922549 -.00000049  00000+0  00000+0 0  9998
2 40749  54.9149 303.8513 0004457  51.4305 308.6107  1.86254812 73146
GSAT0205 (GALILEO 9)    
1 40889U 15045A   26115.63255192 -.00000038  00000+0  00000+0 0  9992
2 40889  54.9613 223.1764 0005159 266.9978  92.9342  1.67410754 66085
GSAT0206 (GALILEO 10)   
1 40890U 15045B   26115.66468946 -.00000038  00000+0  00000+0 0  9990
2 40890  54.9612 223.0540 0002188  38.1287 321.8788  1.70473961 66146
BEIDOU-3S IGSO-2S (C56) 
1 40938U 15053A   26116.85580831 -.00000177  00000+0  00000+0 0  9996
2 40938  49.3035 259.3896 0063652 190.0802 170.2721  1.00271610 38845
GPS BIIF-11 (PRN 10)    
1 41019U 15062A   26115.92662522 -.00000097  00000+0  00000+0 0  9993
2 41019  56.9265  32.8248 0111250 231.5206 127.4823  2.00566971 76787
GSAT-15 (GAGAN/PRN 139) 
1 41028U 15065A   26116.94261192 -.00000269  00000+0  00000+0 0  9998
2 41028   0.0682 257.0638 0003727 145.1368 245.5890  1.00271973 38285
GSAT0209 (GALILEO 12)   
1 41174U 15079A   26115.24610591  .00000046  00000+0  00000+0 0  9990
2 41174  55.7962 102.7123 0005679 329.0159  30.9454  1.70474059 63871
GSAT0208 (GALILEO 11)   
1 41175U 15079B   26116.05295675  .00000046  00000+0  00000+0 0  9993
2 41175  55.7944 102.6873 0005050 330.1145  29.8515  1.70473954 64301
IRNSS-1E                
1 41241U 16003A   26111.89127155 -.00000302  00000+0  00000+0 0  9995
2 41241  33.1155  60.5610 0017245 183.4571  38.5260  1.00277854 37512
GPS BIIF-12 (PRN 32)    
1 41328U 16007A   26116.01441263  .00000035  00000+0  00000+0 0  9995
2 41328  55.4924  91.5265 0096118 247.0858 111.8862  2.00554140 74791
COSMOS 2514 (751)       
1 41330U 16008A   26116.19734976 -.00000026  00000+0  00000+0 0  9995
2 41330  65.0524 314.7909 0009488 198.1735 161.8195  2.13102638 79510
BEIDOU-2 IGSO-6 (C13)   
1 41434U 16021A   26112.85559397 -.00000169  00000+0  00000+0 0  9994
2 41434  60.1522  38.5901 0055866 232.0601 343.5038  1.00270364 36923
IRNSS-1G                
1 41469U 16027A   26116.87620738 -.00000340  00000+0  00000+0 0  9993
2 41469   5.0697  98.6791 0005896 345.6173 215.6314  1.00275749 36668
GSAT0211 (GALILEO 14)   
1 41549U 16030A   26114.41727357 -.00000030  00000+0  00000+0 0  9995
2 41549  55.1119 223.1731 0002524 359.1559   0.8397  1.70474087 61750
GSAT0210 (GALILEO 13)   
1 41550U 16030B   26115.26112393 -.00000036  00000+0  00000+0 0  9995
2 41550  55.1104 223.1480 0002810 225.6811 134.2889  1.70474037 61767
BEIDOU-2 G7 (C03)       
1 41586U 16037A   26116.93260023 -.00000362  00000+0  00000+0 0  9992
2 41586   1.5954  68.8178 0007735 354.5704 237.7044  1.00265175  6378
EUTELSAT 117 WEST B (W*)
1 41589U 16038B   26116.89856748 -.00000023  00000+0  00000+0 0  9990
2 41589   0.0123  95.7003 0000042  22.0292 303.6604  1.00271972 36147
GSAT0207 (GALILEO 15)   
1 41859U 16069A   26116.12593912  .00000045  00000+0  00000+0 0  9994
2 41859  55.4667 102.5250 0005924 317.5272  42.4215  1.70474012 58517
GSAT0212 (GALILEO 16)   
1 41860U 16069B   26115.97942788  .00000045  00000+0  00000+0 0  9997
2 41860  55.4638 102.5243 0004656 340.7517  19.2254  1.70474171 58768
GSAT0213 (GALILEO 17)   
1 41861U 16069C   26115.17360778  .00000045  00000+0  00000+0 0  9993
2 41861  55.4662 102.5544 0005854 302.3888  57.5492  1.70474518 58614
GSAT0214 (GALILEO 18)   
1 41862U 16069D   26115.90630783  .00000045  00000+0  00000+0 0  9991
2 41862  55.4649 102.5269 0004911 307.4506  52.4995  1.70474260 58751
SES-15 (WAAS/PRN 133)   
1 42709U 17026A   26116.93093403  .00000049  00000+0  00000+0 0  9996
2 42709   0.0241 326.4455 0000647  44.7047  49.7564  1.00269945  6910
QZS-2 (QZSS/PRN 194)    
1 42738U 17028A   26116.23428738 -.00000266  00000+0  00000+0 0  9998
2 42738  39.5095 243.9120 0740318 270.8047 281.9812  1.00247520  7109
QZS-3 (QZSS/PRN 199)    
1 42917U 17048A   26116.94701434 -.00000359  00000+0  00000+0 0  9997
2 42917   0.0513 181.4635 0001354 202.7307 298.7072  1.00270919 31745
COSMOS 2522 (752)       
1 42939U 17055A   26115.09669524 -.00000017  00000+0  00000+0 0  9998
2 42939  64.0763 193.6909 0009475 236.5464 123.4103  2.13101747 66841
QZS-4 (QZSS/PRN 195)    
1 42965U 17062A   26112.66690654 -.00000326  00000+0  00000+0 0  9996
2 42965  40.1416 344.1915 0746625 270.8161 335.9811  1.00266456 31246
BEIDOU-3 M1 (C19)       
1 43001U 17069A   26116.04827855 -.00000034  00000+0  00000+0 0  9992
2 43001  56.6495  64.8005 0012240 318.2876  41.5912  1.86230971 57632
BEIDOU-3 M2 (C20)       
1 43002U 17069B   26115.98689416 -.00000033  00000+0  00000+0 0  9993
2 43002  56.6485  64.8387 0010178 339.1978  20.7330  1.86230392 57627
GSAT0215 (GALILEO 19)   
1 43055U 17079A   26113.46347810 -.00000022  00000+0  00000+0 0  9990
2 43055  55.0907 223.0118 0001428 264.4741  95.5096  1.70474699 52058
GSAT0216 (GALILEO 20)   
1 43056U 17079B   26114.92781412 -.00000034  00000+0  00000+0 0  9996
2 43056  55.0895 222.9715 0002775 284.1808  75.7828  1.70474805 52091
GSAT0217 (GALILEO 21)   
1 43057U 17079C   26116.32174354 -.00000039  00000+0  00000+0 0  9999
2 43057  55.0878 222.9311 0002278 305.0014  54.9682  1.70474773 52108
GSAT0218 (GALILEO 22)   
1 43058U 17079D   26115.95522277 -.00000039  00000+0  00000+0 0  9999
2 43058  55.0879 222.9388 0003183 277.2874  82.6679  1.70474761 52127
BEIDOU-3 M7 (C27)       
1 43107U 18003A   26114.11756823 -.00000045  00000+0  00000+0 0  9992
2 43107  54.3768 304.1996 0005304  82.0952 277.9663  1.86227876 56345
BEIDOU-3 M8 (C28)       
1 43108U 18003B   26116.21099368 -.00000057  00000+0  00000+0 0  9993
2 43108  54.3678 304.1083 0002185 285.2373  74.7389  1.86230705 56399
BEIDOU-3 M4 (C22)       
1 43207U 18018A   26115.04264605 -.00000025  00000+0  00000+0 0  9992
2 43207  56.6074  64.8995 0007871   1.7700 358.2071  1.86230859 55755
BEIDOU-3 M3 (C21)       
1 43208U 18018B   26116.71995594 -.00000041  00000+0  00000+0 0  9994
2 43208  56.6084  64.8481 0010041 330.2132  29.6996  1.86230932 55789
BEIDOU-3 M9 (C29)       
1 43245U 18029A   26115.86361980 -.00000053  00000+0  00000+0 0  9991
2 43245  54.2419 301.7768 0000956  83.5736 276.4348  1.86228079 54926
BEIDOU-3 M10 (C30)      
1 43246U 18029B   26116.87215986 -.00000061  00000+0  00000+0 0  9997
2 43246  54.2390 301.7693 0004833  35.3233 324.7045  1.86228913 54925
IRNSS-1I                
1 43286U 18035A   26113.96433882  .00000084  00000+0  00000+0 0  9996
2 43286  29.0520  75.0297 0018329 186.8735 352.2911  1.00274138 29532
COSMOS 2527 (756)       
1 43508U 18053A   26115.99657815  .00000013  00000+0  00000+0 0  9994
2 43508  65.5504  75.6470 0008600 248.7222 111.1654  2.13101904 61161
BEIDOU-2 IGSO-7 (C16)   
1 43539U 18057A   26113.82760630 -.00000099  00000+0  00000+0 0  9997
2 43539  55.1848 163.5332 0103271 237.5854 221.4335  1.00267626 28581
GSAT0221 (GALILEO 25)   
1 43564U 18060A   26114.09926935 -.00000088  00000+0  00000+0 0  9999
2 43564  57.1855 343.2419 0003847 321.5085  38.5036  1.70475641 48245
GSAT0222 (GALILEO 26)   
1 43565U 18060B   26115.49200276 -.00000090  00000+0  00000+0 0  9991
2 43565  57.1892 343.2075 0002413 289.5902  70.4237  1.70475419 48313
GSAT0219 (GALILEO 23)   
1 43566U 18060C   26113.95323101 -.00000088  00000+0  00000+0 0  9991
2 43566  57.1884 343.2507 0003351 340.2281  19.7984  1.70475588 48268
GSAT0220 (GALILEO 24)   
1 43567U 18060D   26114.76093408 -.00000089  00000+0  00000+0 0  9997
2 43567  57.1842 343.2275 0003644  44.9018 315.1672  1.70475503 48260
BEIDOU-3 M5 (C23)       
1 43581U 18062A   26114.94852699 -.00000011  00000+0  00000+0 0  9995
2 43581  54.0831 184.1144 0004252 289.5888  70.4232  1.86228517 52643
BEIDOU-3 M6 (C24)       
1 43582U 18062B   26115.34868677 -.00000010  00000+0  00000+0 0  9993
2 43582  54.0829 184.0898 0004888  23.5128 336.5677  1.86227595 52659
BEIDOU-3 M12 (C26)      
1 43602U 18067A   26114.75012764 -.00000010  00000+0  00000+0 0  9993
2 43602  54.1783 182.8527 0007877  33.8697 326.2399  1.86227717 52128
BEIDOU-3 M11 (C25)      
1 43603U 18067B   26113.27415517 -.00000005  00000+0  00000+0 0  9997
2 43603  54.1754 182.8665 0004476  21.7330 338.3485  1.86227214 52124
BEIDOU-3 M13 (C32)      
1 43622U 18072A   26116.45110574 -.00000039  00000+0  00000+0 0  9999
2 43622  56.5817  64.3658 0008851 318.4220  41.4817  1.86230936 51699
BEIDOU-3 M14 (C33)      
1 43623U 18072B   26114.70569242 -.00000024  00000+0  00000+0 0  9990
2 43623  56.5822  64.4176 0006921 342.3518  17.5993  1.86231012 51655
BEIDOU-3 M16 (C35)      
1 43647U 18078A   26116.47269122 -.00000058  00000+0  00000+0 0  9999
2 43647  54.1380 301.7980 0008118  38.5073 321.5472  1.86232303 51197
